NORAD_CAT_ID,OBJECT_NAME,OBJECT_TYPE,EPOCH,MEAN_MOTION,ECCENTRICITY,INCLINATION,RA_OF_ASC_NODE,ARG_OF_PERICENTER,MEAN_ANOMALY,BSTAR,MEAN_MOTION_DOT,MEAN_MOTION_DDOT,TLE_LINE0,TLE_LINE1,TLE_LINE2,SEMIMAJOR_AXIS,PERIOD,APOGEE,PERIGEE,DECAYED
52362.0,STARLINK-3848,PAYLOAD,2023-06-07 23:54:38,15.08838625,9.64e-05,53.2176,23.8515,83.6494,276.4607,6.9362e-05,8.16e-06,0.0,0 STARLINK-3848,1 52362U 22045AH  23158.99628140  .00000816  00000-0  69362-4 0  9994,2 52362  53.2176  23.8515 0000964  83.6494 276.4607 15.08838625 64098,6917.885,95.438,540.416,539.083,0.0
52362.0,STARLINK-3848,PAYLOAD,2023-06-08 23:45:26,15.08824905,9.57e-05,53.2173,19.3909,90.9475,269.1627,-0.00012964,-2.349e-05,0.0,0 STARLINK-3848,1 52362U 22045AH  23159.98989474 -.00002349  00000-0 -12964-3 0  9994,2 52362  53.2173  19.3909 0000957  90.9475 269.1627 15.08824905 64248,6917.927,95.439,540.454,539.129,0.0
52362.0,STARLINK-3848,PAYLOAD,2023-06-09 07:42:22,15.08831595,8.37e-05,53.2185,17.9039,85.3395,274.7693,-3.3043e-05,-8.13e-06,0.0,0 STARLINK-3848,1 52362U 22045AH  23160.32109849 -.00000813  00000-0 -33043-4 0  9990,2 52362  53.2185  17.9039 0000837  85.3395 274.7693 15.08831595 64298,6917.906,95.438,540.35,539.192,0.0
52362.0,STARLINK-3848,PAYLOAD,2023-06-09 17:14:39,15.08897881,4.49e-05,53.2187,16.1195,81.9654,278.139,-0.00082964,-0.00013488,0.0,0 STARLINK-3848,1 52362U 22045AH  23160.71851453 -.00013488  00000-0 -82964-3 0  9995,2 52362  53.2187  16.1195 0000449  81.9654 278.1390 15.08897881 64352,6917.703,95.434,539.879,539.258,0.0
52362.0,STARLINK-3848,PAYLOAD,2023-06-09 20:25:27,15.08835643,8.8e-05,53.2186,15.525,85.7129,274.3964,0.00014231,1.978e-05,0.0,0 STARLINK-3848,1 52362U 22045AH  23160.85101557  .00001978  00000-0  14231-3 0  9994,2 52362  53.2186  15.5250 0000880  85.7129 274.3964 15.08835643 64379,6917.894,95.438,540.367,539.15,0.0
52362.0,STARLINK-3848,PAYLOAD,2023-06-09 23:36:13,15.08840526,9.15e-05,53.2186,14.9302,85.0247,275.0849,0.0001175,1.583e-05,0.0,0 STARLINK-3848,1 52362U 22045AH  23160.98349350  .00001583  00000-0  11750-3 0  9998,2 52362  53.2186  14.9302 0000915  85.0247 275.0849 15.08840526 64391,6917.879,95.438,540.377,539.111,0.0
52362.0,STARLINK-3848,PAYLOAD,2023-06-10 13:54:41,15.0884365,0.0001,53.2185,12.2544,83.6357,276.4749,0.00030869,4.629e-05,0.0,0 STARLINK-3848,1 52362U 22045AH  23161.57964858  .00004629  00000-0  30869-3 0  9996,2 52362  53.2185  12.2544 0001000  83.6357 276.4749 15.08843650 64486,6917.869,95.437,540.426,539.042,0.0
52362.0,STARLINK-3848,PAYLOAD,2023-06-10 20:16:14,15.08854198,0.0001015,53.2177,11.0652,81.2102,278.9005,0.00047702,7.315e-05,0.0,0 STARLINK-3848,1 52362U 22045AH  23161.84460836  .00007315  00000-0  47702-3 0  9992,2 52362  53.2177  11.0652 0001015  81.2102 278.9005 15.08854198 64528,6917.837,95.437,540.404,539.0,0.0
52362.0,STARLINK-3848,PAYLOAD,2023-06-10 23:27:00,15.08858868,0.0001024,53.2176,10.4704,80.8458,279.265,0.00053394,8.224e-05,0.0,0 STARLINK-3848,1 52362U 22045AH  23161.97708624  .00008224  00000-0  53394-3 0  9990,2 52362  53.2176  10.4704 0001024  80.8458 279.2650 15.08858868 64547,6917.823,95.436,540.396,538.979,0.0
52362.0,STARLINK-3848,PAYLOAD,2023-06-11 07:23:55,15.08857094,9.58e-05,53.2168,8.9838,78.3728,281.7372,0.00035846,5.424e-05,0.0,0 STARLINK-3848,1 52362U 22045AH  23162.30828529  .00005424  00000-0  35846-3 0  9996,2 52362  53.2168   8.9838 0000958  78.3728 281.7372 15.08857094 64599,6917.828,95.436,540.356,539.03,0.0
52362.0,STARLINK-3848,PAYLOAD,2023-06-11 13:45:28,15.08854169,0.0001445,53.2172,7.7943,84.4614,275.6543,0.00021601,3.153e-05,0.0,0 STARLINK-3848,1 52362U 22045AH  23162.57324629  .00003153  00000-0  21601-3 0  9998,2 52362  53.2172   7.7943 0001445  84.4614 275.6543 15.08854169 64639,6917.837,95.437,540.702,538.702,0.0
52362.0,STARLINK-3848,PAYLOAD,2023-06-11 20:07:00,15.08856916,0.0001287,53.2172,6.6047,89.9139,270.2,0.00023896,3.519e-05,0.0,0 STARLINK-3848,1 52362U 22045AH  23162.83820311  .00003519  00000-0  23896-3 0  9990,2 52362  53.2172   6.6047 0001287  89.9139 270.2000 15.08856916 64673,6917.829,95.436,540.584,538.803,0.0
52362.0,STARLINK-3848,PAYLOAD,2023-06-12 23:08:33,15.08848606,0.0001061,53.2184,1.5495,99.9165,260.1947,0.00015477,2.177e-05,0.0,0 STARLINK-3848,1 52362U 22045AH  23163.96428010  .00002177  00000-0  15477-3 0  9990,2 52362  53.2184   1.5495 0001061  99.9165 260.1947 15.08848606 64841,6917.854,95.437,540.453,538.985,0.0
52362.0,STARLINK-3848,PAYLOAD,2023-06-13 13:27:02,15.08837071,0.0001139,53.2184,358.8695,111.5986,248.5127,4.9545e-05,5.01e-06,0.0,0 STARLINK-3848,1 52362U 22045AH  23164.56044493  .00000501  00000-0  49545-4 0  9999,2 52362  53.2184 358.8695 0001139 111.5986 248.5127 15.08837071 64933,6917.889,95.438,540.542,538.966,0.0
52362.0,STARLINK-3848,PAYLOAD,2023-06-13 19:48:34,15.08843613,0.0001016,53.2181,357.6835,99.3949,260.7158,0.00011573,1.555e-05,0.0,0 STARLINK-3848,1 52362U 22045AH  23164.82540274  .00001555  00000-0  11573-3 0  9995,2 52362  53.2181 357.6835 0001016  99.3949 260.7158 15.08843613 64972,6917.869,95.437,540.437,539.031,0.0
52362.0,STARLINK-3848,PAYLOAD,2023-06-14 13:17:49,15.08834956,0.0001041,53.2175,354.4136,102.636,257.4748,-7.1851e-05,-1.431e-05,0.0,0 STARLINK-3848,1 52362U 22045AH  23165.55404810 -.00001431  00000-0 -71851-4 0  9992,2 52362  53.2175 354.4136 0001041 102.6360 257.4748 15.08834956 65088,6917.896,95.438,540.481,539.041,0.0
52362.0,STARLINK-3848,PAYLOAD,2023-06-14 19:39:22,15.08838283,0.000108,53.2182,353.2256,95.2726,264.8389,-2.4752e-05,-6.82e-06,0.0,0 STARLINK-3848,1 52362U 22045AH  23165.81900641 -.00000682  00000-0 -24752-4 0  9999,2 52362  53.2182 353.2256 0001080  95.2726 264.8389 15.08838283 65127,6917.886,95.438,540.498,539.004,0.0
52362.0,STARLINK-3848,PAYLOAD,2023-06-15 13:08:36,15.08838611,0.0001002,53.2177,349.9525,92.0279,268.0828,7.8926e-05,9.69e-06,0.0,0 STARLINK-3848,1 52362U 22045AH  23166.54764881  .00000969  00000-0  78926-4 0  9992,2 52362  53.2177 349.9525 0001002  92.0279 268.0828 15.08838611 65235,6917.885,95.438,540.443,539.056,0.0
52362.0,STARLINK-3848,PAYLOAD,2023-06-15 17:54:46,15.0884321,0.0001019,53.2177,349.0605,92.6719,267.439,0.00015334,2.154e-05,0.0,0 STARLINK-3848,1 52362U 22045AH  23166.74636699  .00002154  00000-0  15334-3 0  9990,2 52362  53.2177 349.0605 0001019  92.6719 267.4390 15.08843210 65269,6917.871,95.437,540.441,539.031,0.0
52362.0,STARLINK-3848,PAYLOAD,2023-06-16 12:59:23,15.08844533,9.71e-05,53.2173,345.4919,89.4749,270.6355,0.00027409,4.078e-05,0.0,0 STARLINK-3848,1 52362U 22045AH  23167.54124643  .00004078  00000-0  27409-3 0  9993,2 52362  53.2173 345.4919 0000971  89.4749 270.6355 15.08844533 65385,6917.867,95.437,540.403,539.06,0.0
52362.0,STARLINK-3848,PAYLOAD,2023-06-16 17:45:32,15.08852272,9.84e-05,53.2177,344.5999,90.6676,269.4429,0.00027777,4.137e-05,0.0,0 STARLINK-3848,1 52362U 22045AH  23167.73996185  .00004137  00000-0  27777-3 0  9996,2 52362  53.2177 344.5999 0000984  90.6676 269.4429 15.08852272 65415,6917.843,95.437,540.389,539.027,0.0
52362.0,STARLINK-3848,PAYLOAD,2023-06-16 20:56:18,15.08856761,9.89e-05,53.2175,344.0051,88.8416,271.269,0.00034597,5.225e-05,0.0,0 STARLINK-3848,1 52362U 22045AH  23167.87243936  .00005225  00000-0  34597-3 0  9997,2 52362  53.2175 344.0051 0000989  88.8416 271.2690 15.08856761 65433,6917.829,95.436,540.378,539.01,0.0
52362.0,STARLINK-3848,PAYLOAD,2023-06-17 04:53:15,15.08836919,0.000123,53.2173,342.5182,73.3732,286.7395,-2.2885e-05,-6.52e-06,0.0,0 STARLINK-3848,1 52362U 22045AH  23168.20364841 -.00000652  00000-0 -22885-4 0  9993,2 52362  53.2173 342.5182 0001230  73.3732 286.7395 15.08836919 65480,6917.89,95.438,540.606,538.904,0.0
52362.0,STARLINK-3848,PAYLOAD,2023-06-17 17:36:20,15.08831224,0.0001723,53.2179,340.1398,75.8958,284.2225,-7.048e-05,-1.409e-05,0.0,0 STARLINK-3848,1 52362U 22045AH  23168.73357517 -.00001409  00000-0 -70480-4 0  9998,2 52362  53.2179 340.1398 0001723  75.8958 284.2225 15.08831224 65561,6917.907,95.438,540.964,538.58,0.0
52362.0,STARLINK-3848,PAYLOAD,2023-06-17 19:11:44,15.08820202,0.000104,53.2172,339.8417,72.4119,287.6986,-0.00028215,-4.773e-05,0.0,0 STARLINK-3848,1 52362U 22045AH  23168.79981884 -.00004773  00000-0 -28215-3 0  9999,2 52362  53.2172 339.8417 0001040  72.4119 287.6986 15.08820202 65571,6917.941,95.439,540.525,539.086,0.0
52362.0,STARLINK-3848,PAYLOAD,2023-06-18 04:44:03,15.08831201,9.46e-05,53.2179,338.0579,73.2282,286.8814,4.6539e-05,4.53e-06,0.0,0 STARLINK-3848,1 52362U 22045AH  23169.19725858  .00000453  00000-0  46539-4 0  9990,2 52362  53.2179 338.0579 0000946  73.2282 286.8814 15.08831201 65631,6917.907,95.438,540.427,539.118,0.0
52362.0,STARLINK-3848,PAYLOAD,2023-06-18 11:05:35,15.08836257,9.43e-05,53.218,336.8683,71.9505,288.159,0.00020617,2.995e-05,0.0,0 STARLINK-3848,1 52362U 22045AH  23169.46221931  .00002995  00000-0  20617-3 0  9994,2 52362  53.2180 336.8683 0000943  71.9505 288.1590 15.08836257 65671,6917.892,95.438,540.409,539.104,0.0
52362.0,STARLINK-3848,PAYLOAD,2023-06-18 17:27:08,15.08845898,9.29e-05,53.2176,335.6791,67.0923,293.0168,0.0005955,9.204e-05,0.0,0 STARLINK-3848,1 52362U 22045AH  23169.72717885  .00009204  00000-0  59550-3 0  9999,2 52362  53.2176 335.6791 0000929  67.0923 293.0168 15.08845898 65719,6917.862,95.437,540.37,539.085,0.0
52362.0,STARLINK-3848,PAYLOAD,2023-06-19 10:56:22,15.08853768,0.0001045,53.2173,332.4092,59.1368,300.9727,0.00048773,7.486e-05,0.0,0 STARLINK-3848,1 52362U 22045AH  23170.45581739  .00007486  00000-0  48773-3 0  9993,2 52362  53.2173 332.4092 0001045  59.1368 300.9727 15.08853768 65826,6917.838,95.437,540.426,538.98,0.0
52362.0,STARLINK-3848,PAYLOAD,2023-06-19 18:53:17,15.08860752,0.0001023,53.2177,330.9219,57.1525,302.9566,0.00055164,8.507e-05,0.0,0 STARLINK-3848,1 52362U 22045AH  23170.78701257  .00008507  00000-0  55164-3 0  9995,2 52362  53.2177 330.9219 0001023  57.1525 302.9566 15.08860752 65872,6917.817,95.436,540.39,538.974,0.0
